NORAD_CAT_ID,OBJECT_NAME,OBJECT_TYPE,EPOCH,MEAN_MOTION,ECCENTRICITY,INCLINATION,RA_OF_ASC_NODE,ARG_OF_PERICENTER,MEAN_ANOMALY,BSTAR,MEAN_MOTION_DOT,MEAN_MOTION_DDOT,TLE_LINE0,TLE_LINE1,TLE_LINE2,SEMIMAJOR_AXIS,PERIOD,APOGEE,PERIGEE,DECAYED
52103.0,STARLINK-3705,PAYLOAD,2024-02-28 16:04:11,15.08837489,0.0001319,53.2162,161.2023,94.9876,265.1267,0.00010011,1.306e-05,0.0,0 STARLINK-3705,1 52103U 22029R   24059.66957516  .00001306  00000-0  10011-3 0  9997,2 52103  53.2162 161.2023 0001319  94.9876 265.1267 15.08837489109062,6917.888,95.438,540.666,538.841,0.0
52103.0,STARLINK-3705,PAYLOAD,2024-02-29 12:44:11,15.08854758,0.0001318,53.2157,157.3356,81.9355,278.1787,0.0001266,1.728e-05,0.0,0 STARLINK-3705,1 52103U 22029R   24060.53068424  .00001728  00000-0  12660-3 0  9996,2 52103  53.2157 157.3356 0001318  81.9355 278.1787 15.08854758109191,6917.835,95.437,540.612,538.789,0.0
52103.0,STARLINK-3705,PAYLOAD,2024-02-29 23:51:53,15.08850746,0.0001243,53.2159,155.2549,87.7315,272.382,4.9939e-05,5.07e-06,0.0,0 STARLINK-3705,1 52103U 22029R   24060.99436519  .00000507  00000-0  49939-4 0  9994,2 52103  53.2159 155.2549 0001243  87.7315 272.3820 15.08850746109266,6917.848,95.437,540.572,538.853,0.0
52103.0,STARLINK-3705,PAYLOAD,2024-03-01 12:34:58,15.08836496,0.0001308,53.2174,152.8759,91.0062,269.108,0.00011896,1.606e-05,0.0,0 STARLINK-3705,1 52103U 22029R   24061.52429341  .00001606  00000-0  11896-3 0  9990,2 52103  53.2174 152.8759 0001308  91.0062 269.1080 15.08836496109345,6917.891,95.438,540.661,538.851,0.0
52103.0,STARLINK-3705,PAYLOAD,2024-03-02 10:50:22,15.0885122,0.0001615,53.2185,148.7128,98.7725,261.345,2.0005e-05,3e-07,0.0,0 STARLINK-3705,1 52103U 22029R   24062.45164459  .00000030  00000-0  20005-4 0  9992,2 52103  53.2185 148.7128 0001615  98.7725 261.3450 15.08851220109484,6917.846,95.437,540.828,538.594,0.0
52103.0,STARLINK-3705,PAYLOAD,2024-03-02 12:25:45,15.08852287,0.0001599,53.2187,148.4149,101.0473,259.0699,2.8207e-05,1.61e-06,0.0,0 STARLINK-3705,1 52103U 22029R   24062.51788310  .00000161  00000-0  28207-4 0  9994,2 52103  53.2187 148.4149 0001599 101.0473 259.0699 15.08852287109499,6917.843,95.437,540.814,538.602,0.0
52103.0,STARLINK-3705,PAYLOAD,2024-03-03 12:16:33,15.08834352,0.0001603,53.2174,143.9537,110.0873,250.0292,-9.6014e-06,-4.41e-06,0.0,0 STARLINK-3705,1 52103U 22029R   24063.51149698 -.00000441  00000-0 -96014-5 0  9990,2 52103  53.2174 143.9537 0001603 110.0873 250.0292 15.08834352109646,6917.898,95.438,540.872,538.654,0.0
52103.0,STARLINK-3705,PAYLOAD,2024-03-04 12:07:18,15.08870218,0.0001627,53.2159,139.4937,98.8096,261.3081,0.00037445,5.681e-05,0.0,0 STARLINK-3705,1 52103U 22029R   24064.50507175  .00005681  00000-0  37445-3 0  9998,2 52103  53.2159 139.4937 0001627  98.8096 261.3081 15.08870218109797,6917.788,95.436,540.779,538.528,0.0
52103.0,STARLINK-3705,PAYLOAD,2024-03-04 21:39:38,15.0883101,0.0002109,53.2155,137.7089,98.7184,261.4047,-0.00015398,-2.737e-05,0.0,0 STARLINK-3705,1 52103U 22029R   24064.90253233 -.00002737  00000-0 -15398-3 0  9999,2 52103  53.2155 137.7089 0002109  98.7184 261.4047 15.08831010109852,6917.908,95.438,541.232,538.314,0.0
52103.0,STARLINK-3705,PAYLOAD,2024-03-05 13:33:31,15.08821924,0.0001607,53.2155,134.7354,118.3526,241.7628,-0.0001398,-2.511e-05,0.0,0 STARLINK-3705,1 52103U 22029R   24065.56494260 -.00002511  00000-0 -13980-3 0  9994,2 52103  53.2155 134.7354 0001607 118.3526 241.7628 15.08821924109955,6917.936,95.439,540.912,538.689,0.0
52103.0,STARLINK-3705,PAYLOAD,2024-03-06 03:51:58,15.08836092,0.0001389,53.2152,132.0582,113.1234,246.9905,-0.0001488,-2.655e-05,0.0,0 STARLINK-3705,1 52103U 22029R   24066.16109921 -.00002655  00000-0 -14880-3 0  9997,2 52103  53.2152 132.0582 0001389 113.1234 246.9905 15.08836092110041,6917.892,95.438,540.718,538.796,0.0
52103.0,STARLINK-3705,PAYLOAD,2024-03-06 11:48:53,15.08853053,0.0001511,53.2153,130.571,117.6626,242.4519,0.0001554,2.187e-05,0.0,0 STARLINK-3705,1 52103U 22029R   24066.49229075  .00002187  00000-0  15540-3 0  9998,2 52103  53.2153 130.5710 0001511 117.6626 242.4519 15.08853053110092,6917.84,95.437,540.751,538.66,0.0
52103.0,STARLINK-3705,PAYLOAD,2024-03-06 13:24:16,15.08854037,0.0001506,53.2153,130.2734,119.1459,240.9684,0.0001786,2.557e-05,0.0,0 STARLINK-3705,1 52103U 22029R   24066.55852999  .00002557  00000-0  17860-3 0  9990,2 52103  53.2153 130.2734 0001506 119.1459 240.9684 15.08854037110101,6917.837,95.437,540.744,538.661,0.0
52103.0,STARLINK-3705,PAYLOAD,2024-03-07 03:42:46,15.08826784,0.0001738,53.2162,127.5999,101.0588,259.0599,0.00032155,4.831e-05,0.0,0 STARLINK-3705,1 52103U 22029R   24067.15470683  .00004831  00000-0  32155-3 0  9994,2 52103  53.2162 127.5999 0001738 101.0588 259.0599 15.08826784110196,6917.921,95.438,540.988,538.583,0.0
52103.0,STARLINK-3705,PAYLOAD,2024-03-07 11:39:42,15.0883657,0.0001432,53.2154,126.1132,107.0988,253.0161,0.00023297,3.421e-05,0.0,0 STARLINK-3705,1 52103U 22029R   24067.48590552  .00003421  00000-0  23297-3 0  9999,2 52103  53.2154 126.1132 0001432 107.0988 253.0161 15.08836570110241,6917.891,95.438,540.747,538.765,0.0
52103.0,STARLINK-3705,PAYLOAD,2024-03-08 09:55:05,15.08852364,0.0001428,53.215,121.9485,105.1587,254.9563,0.00012245,1.662e-05,0.0,0 STARLINK-3705,1 52103U 22029R   24068.41325668  .00001662  00000-0  12245-3 0  9993,2 52103  53.2150 121.9485 0001428 105.1587 254.9563 15.08852364110380,6917.843,95.437,540.695,538.72,0.0
52103.0,STARLINK-3705,PAYLOAD,2024-03-09 03:24:20,15.08842454,0.0001537,53.2151,118.6785,83.4795,276.6372,0.00019,2.737e-05,0.0,0 STARLINK-3705,1 52103U 22029R   24069.14190148  .00002737  00000-0  19000-3 0  9997,2 52103  53.2151 118.6785 0001537  83.4795 276.6372 15.08842454110497,6917.873,95.437,540.801,538.675,0.0
52103.0,STARLINK-3705,PAYLOAD,2024-03-09 09:45:53,15.08837346,0.0001421,53.215,117.4882,105.1985,254.9164,0.00040199,6.115e-05,0.0,0 STARLINK-3705,1 52103U 22029R   24069.40686403  .00006115  00000-0  40199-3 0  9997,2 52103  53.2150 117.4882 0001421 105.1985 254.9164 15.08837346110533,6917.889,95.438,540.737,538.77,0.0
52103.0,STARLINK-3705,PAYLOAD,2024-03-10 09:36:39,15.08850748,0.0001575,53.2166,113.0277,103.362,256.7548,-1.3413e-05,-5.02e-06,0.0,0 STARLINK-3705,1 52103U 22029R   24070.40045406 -.00000502  00000-0 -13413-4 0  9997,2 52103  53.2166 113.0277 0001575 103.3620 256.7548 15.08850748110689,6917.848,95.437,540.802,538.623,0.0
52103.0,STARLINK-3705,PAYLOAD,2024-03-10 19:08:58,15.08846632,0.0001211,53.2164,111.2417,89.5976,270.5155,-8.6916e-06,-4.26e-06,0.0,0 STARLINK-3705,1 52103U 22029R   24070.79789383 -.00000426  00000-0 -86916-5 0  9992,2 52103  53.2164 111.2417 0001211  89.5976 270.5155 15.08846632110741,6917.86,95.437,540.563,538.887,0.0
52103.0,STARLINK-3705,PAYLOAD,2024-03-11 03:05:54,15.08835925,0.0001638,53.2165,109.7566,97.6068,262.511,1.784e-05,-4e-08,0.0,0 STARLINK-3705,1 52103U 22029R   24071.12910249 -.00000004  00000-0  17840-4 0  9997,2 52103  53.2165 109.7566 0001638  97.6068 262.5110 15.08835925110794,6917.893,95.438,540.891,538.625,0.0
52103.0,STARLINK-3705,PAYLOAD,2024-03-11 09:27:26,15.08837796,0.0001557,53.2169,108.5691,103.2916,256.825,3.799e-05,3.17e-06,0.0,0 STARLINK-3705,1 52103U 22029R   24071.39406103  .00000317  00000-0  37990-4 0  9999,2 52103  53.2169 108.5691 0001557 103.2916 256.8250 15.08837796110834,6917.887,95.438,540.829,538.675,0.0
52103.0,STARLINK-3705,PAYLOAD,2024-03-12 10:53:37,15.08836431,0.0001452,53.2168,103.8108,93.9934,266.1224,1.3324e-05,-7.6e-07,0.0,0 STARLINK-3705,1 52103U 22029R   24072.45390586 -.00000076  00000-0  13324-4 0  9992,2 52103  53.2168 103.8108 0001452  93.9934 266.1224 15.08836431110990,6917.891,95.438,540.761,538.752,0.0
52103.0,STARLINK-3705,PAYLOAD,2024-03-12 18:50:32,15.08856343,0.0001338,53.2167,102.3233,86.3395,273.775,-0.00018783,-3.277e-05,0.0,0 STARLINK-3705,1 52103U 22029R   24072.78509679 -.00003277  00000-0 -18783-3 0  9993,2 52103  53.2167 102.3233 0001338  86.3395 273.7750 15.08856343111041,6917.83,95.437,540.621,538.77,0.0
52103.0,STARLINK-3705,PAYLOAD,2024-03-13 10:44:23,15.08846582,0.0001518,53.2166,99.3496,99.5957,260.5207,0.00016275,2.304e-05,0.0,0 STARLINK-3705,1 52103U 22029R   24073.44749741  .00002304  00000-0  16275-3 0  9995,2 52103  53.2166  99.3496 0001518  99.5957 260.5207 15.08846582111142,6917.86,95.437,540.775,538.675,0.0
52103.0,STARLINK-3705,PAYLOAD,2024-03-14 05:49:02,15.08835255,0.000152,53.2167,95.7812,99.5381,260.5783,9.1807e-05,1.173e-05,0.0,0 STARLINK-3705,1 52103U 22029R   24074.24238779  .00001173  00000-0  91807-4 0  9996,2 52103  53.2167  95.7812 0001520  99.5381 260.5783 15.08835255111266,6917.895,95.438,540.811,538.708,0.0
52103.0,STARLINK-3705,PAYLOAD,2024-03-14 10:35:11,15.08837294,0.0001523,53.2168,94.8878,97.4352,262.6813,0.00012035,1.628e-05,0.0,0 STARLINK-3705,1 52103U 22029R   24074.44110504  .00001628  00000-0  12035-3 0  9993,2 52103  53.2168  94.8878 0001523  97.4352 262.6813 15.08837294111292,6917.889,95.438,540.807,538.7,0.0
52103.0,STARLINK-3705,PAYLOAD,2024-03-15 10:25:58,15.08848064,0.0001544,53.2165,90.4255,89.7346,270.3824,8.1888e-06,-1.58e-06,0.0,0 STARLINK-3705,1 52103U 22029R   24075.43470112 -.00000158  00000-0  81888-5 0  9999,2 52103  53.2165  90.4255 0001544  89.7346 270.3824 15.08848064111442,6917.856,95.437,540.789,538.653,0.0
52103.0,STARLINK-3705,PAYLOAD,2024-03-16 10:16:39,15.08911992,0.0001923,53.2176,85.9612,87.4161,272.7052,0.00064866,0.00010071,0.0,0 STARLINK-3705,1 52103U 22029R   24076.42823978  .00010071  00000-0  64866-3 0  9990,2 52103  53.2176  85.9612 0001923  87.4161 272.7052 15.08911992111597,6917.66,95.433,540.856,538.195,0.0
52103.0,STARLINK-3705,PAYLOAD,2024-03-17 03:45:59,15.08835135,0.000129,53.2174,82.6937,84.3885,275.7254,-7.8586e-05,-1.538e-05,0.0,0 STARLINK-3705,1 52103U 22029R   24077.15694058 -.00001538  00000-0 -78586-4 0  9991,2 52103  53.2174  82.6937 0001290  84.3885 275.7254 15.08835135111709,6917.895,95.438,540.653,538.868,0.0
